{
  "type": "FeatureCollection",
  "features": [
    {
      "type": "Feature",
      "properties": {
        "norad_id": 39554,
        "name": "COSMOS 2251 DEB",
        "group": "cosmos-2251-debris",
        "lat": 21.46238059063017,
        "lon": 60.39752597920319,
        "alt_km": 530.7931047794555,
        "timestamp": "2025-12-21T07:34:34.912369+00:00",
        "meta_object_name": "COSMOS 2251 DEB",
        "meta_object_id": "1993-036BUL",
        "meta_epoch": "2025-12-10T06:12:03.924864",
        "meta_mean_motion": 15.10130993,
        "meta_eccentricity": 0.0002993,
        "meta_inclination": 74.0187,
        "meta_ra_of_asc_node": 269.7383,
        "meta_arg_of_pericenter": 74.7531,
        "meta_mean_anomaly": 81.5927,
        "meta_ephemeris_type": 0,
        "meta_classification_type": "U",
        "meta_norad_cat_id": 39554,
        "meta_element_set_no": 999,
        "meta_rev_at_epoch": 64347,
        "meta_bstar": 0.0046896,
        "meta_mean_motion_dot": 0.000773,
        "meta_mean_motion_ddot": 0,
        "tle_line1": "1 39554U 93036BUL 25344.25837876  .00077300  00000+0  46896-2 0  9992",
        "tle_line2": "2 39554  74.0187 269.7383 0002993  74.7531  81.5927 15.10130993643471"
      },
      "geometry": {
        "type": "Point",
        "coordinates": [
          60.39752597920319,
          21.46238059063017
        ]
      }
    },
    {
      "type": "Feature",
      "properties": {
        "norad_id": 39583,
        "name": "COSMOS 2251 DEB",
        "group": "cosmos-2251-debris",
        "lat": 69.55515577532444,
        "lon": -78.62159483067117,
        "alt_km": 691.1019810029866,
        "timestamp": "2025-12-21T07:34:34.912378+00:00",
        "meta_object_name": "COSMOS 2251 DEB",
        "meta_object_id": "1993-036BUN",
        "meta_epoch": "2025-12-20T09:51:33.318720",
        "meta_mean_motion": 14.6056655,
        "meta_eccentricity": 0.01369587,
        "meta_inclination": 73.9317,
        "meta_ra_of_asc_node": 232.4786,
        "meta_arg_of_pericenter": 344.3016,
        "meta_mean_anomaly": 15.392,
        "meta_ephemeris_type": 0,
        "meta_classification_type": "U",
        "meta_norad_cat_id": 39583,
        "meta_element_set_no": 999,
        "meta_rev_at_epoch": 61891,
        "meta_bstar": 0.00096933589,
        "meta_mean_motion_dot": 5.347e-05,
        "meta_mean_motion_ddot": 0,
        "tle_line1": "1 39583U 93036BUN 25354.41080230  .00005347  00000+0  96934-3 0  9998",
        "tle_line2": "2 39583  73.9317 232.4786 0136958 344.3016  15.3920 14.60566550618918"
      },
      "geometry": {
        "type": "Point",
        "coordinates": [
          -78.62159483067117,
          69.55515577532444
        ]
      }
    },
    {
      "type": "Feature",
      "properties": {
        "norad_id": 39585,
        "name": "COSMOS 2251 DEB",
        "group": "cosmos-2251-debris",
        "lat": -23.362907457508264,
        "lon": 112.09393988279436,
        "alt_km": 746.2742560742145,
        "timestamp": "2025-12-21T07:34:34.912387+00:00",
        "meta_object_name": "COSMOS 2251 DEB",
        "meta_object_id": "1993-036BUQ",
        "meta_epoch": "2025-12-17T13:45:47.587680",
        "meta_mean_motion": 14.58681164,
        "meta_eccentricity": 0.00655713,
        "meta_inclination": 74.0421,
        "meta_ra_of_asc_node": 292.1145,
        "meta_arg_of_pericenter": 51.6529,
        "meta_mean_anomaly": 309.0503,
        "meta_ephemeris_type": 0,
        "meta_classification_type": "U",
        "meta_norad_cat_id": 39585,
        "meta_element_set_no": 999,
        "meta_rev_at_epoch": 62591,
        "meta_bstar": 0.00024435975,
        "meta_mean_motion_dot": 1.143e-05,
        "meta_mean_motion_ddot": 0,
        "tle_line1": "1 39585U 93036BUQ 25351.57346745  .00001143  00000+0  24436-3 0  9998",
        "tle_line2": "2 39585  74.0421 292.1145 0065571  51.6529 309.0503 14.58681164625913"
      },
      "geometry": {
        "type": "Point",
        "coordinates": [
          112.09393988279436,
          -23.362907457508264
        ]
      }
    },
    {
      "type": "Feature",
      "properties": {
        "norad_id": 39586,
        "name": "COSMOS 2251 DEB",
        "group": "cosmos-2251-debris",
        "lat": -69.46417540408302,
        "lon": 162.89813706372658,
        "alt_km": 793.8294595695588,
        "timestamp": "2025-12-21T07:34:34.912396+00:00",
        "meta_object_name": "COSMOS 2251 DEB",
        "meta_object_id": "1993-036BUR",
        "meta_epoch": "2025-12-15T23:50:08.053728",
        "meta_mean_motion": 14.21232237,
        "meta_eccentricity": 0.01008868,
        "meta_inclination": 74.0082,
        "meta_ra_of_asc_node": 222.4068,
        "meta_arg_of_pericenter": 356.2296,
        "meta_mean_anomaly": 66.1426,
        "meta_ephemeris_type": 0,
        "meta_classification_type": "U",
        "meta_norad_cat_id": 39586,
        "meta_element_set_no": 999,
        "meta_rev_at_epoch": 61018,
        "meta_bstar": 0.00043436803,
        "meta_mean_motion_dot": 9.7e-06,
        "meta_mean_motion_ddot": 0,
        "tle_line1": "1 39586U 93036BUR 25349.99314877  .00000970  00000+0  43437-3 0  9992",
        "tle_line2": "2 39586  74.0082 222.4068 0100886 356.2296  66.1426 14.21232237610182"
      },
      "geometry": {
        "type": "Point",
        "coordinates": [
          162.89813706372658,
          -69.46417540408302
        ]
      }
    },
    {
      "type": "Feature",
      "properties": {
        "norad_id": 39591,
        "name": "COSMOS 2251 DEB",
        "group": "cosmos-2251-debris",
        "lat": 73.8854902294401,
        "lon": -46.45308386199225,
        "alt_km": 750.7087070954813,
        "timestamp": "2025-12-21T07:34:34.912405+00:00",
        "meta_object_name": "COSMOS 2251 DEB",
        "meta_object_id": "1993-036BUW",
        "meta_epoch": "2025-12-19T09:05:27.177792",
        "meta_mean_motion": 14.41824759,
        "meta_eccentricity": 0.002936,
        "meta_inclination": 74.0196,
        "meta_ra_of_asc_node": 234.4485,
        "meta_arg_of_pericenter": 346.2019,
        "meta_mean_anomaly": 131.9176,
        "meta_ephemeris_type": 0,
        "meta_classification_type": "U",
        "meta_norad_cat_id": 39591,
        "meta_element_set_no": 999,
        "meta_rev_at_epoch": 61872,
        "meta_bstar": 0.0001972,
        "meta_mean_motion_dot": 6.21e-06,
        "meta_mean_motion_ddot": 0,
        "tle_line1": "1 39591U 93036BUW 25353.37878678  .00000621  00000+0  19720-3 0  9990",
        "tle_line2": "2 39591  74.0196 234.4485 0029360 346.2019 131.9176 14.41824759618728"
      },
      "geometry": {
        "type": "Point",
        "coordinates": [
          -46.45308386199225,
          73.8854902294401
        ]
      }
    },
    {
      "type": "Feature",
      "properties": {
        "norad_id": 40218,
        "name": "COSMOS 2251 DEB",
        "group": "cosmos-2251-debris",
        "lat": -23.838246563811737,
        "lon": -134.3310713444031,
        "alt_km": 747.0616488426958,
        "timestamp": "2025-12-21T07:34:34.912414+00:00",
        "meta_object_name": "COSMOS 2251 DEB",
        "meta_object_id": "1993-036BUX",
        "meta_epoch": "2025-12-14T10:48:31.251744",
        "meta_mean_motion": 14.41597705,
        "meta_eccentricity": 0.00168728,
        "meta_inclination": 74.0298,
        "meta_ra_of_asc_node": 245.6562,
        "meta_arg_of_pericenter": 328.6,
        "meta_mean_anomaly": 31.4147,
        "meta_ephemeris_type": 0,
        "meta_classification_type": "U",
        "meta_norad_cat_id": 40218,
        "meta_element_set_no": 999,
        "meta_rev_at_epoch": 58886,
        "meta_bstar": 0.00046023204,
        "meta_mean_motion_dot": 1.474e-05,
        "meta_mean_motion_ddot": 0,
        "tle_line1": "1 40218U 93036BUX 25348.45036171  .00001474  00000+0  46023-3 0  9998",
        "tle_line2": "2 40218  74.0298 245.6562 0016872 328.6000  31.4147 14.41597705588868"
      },
      "geometry": {
        "type": "Point",
        "coordinates": [
          -134.3310713444031,
          -23.838246563811737
        ]
      }
    },
    {
      "type": "Feature",
      "properties": {
        "norad_id": 40223,
        "name": "COSMOS 2251 DEB",
        "group": "cosmos-2251-debris",
        "lat": 65.62269721957372,
        "lon": 110.53971242477192,
        "alt_km": 555.9667899738997,
        "timestamp": "2025-12-21T07:34:34.912423+00:00",
        "meta_object_name": "COSMOS 2251 DEB",
        "meta_object_id": "1993-036BVC",
        "meta_epoch": "2025-12-20T12:10:32.022912",
        "meta_mean_motion": 15.04400789,
        "meta_eccentricity": 0.00154313,
        "meta_inclination": 73.937,
        "meta_ra_of_asc_node": 72.7196,
        "meta_arg_of_pericenter": 279.9109,
        "meta_mean_anomaly": 95.2538,
        "meta_ephemeris_type": 0,
        "meta_classification_type": "U",
        "meta_norad_cat_id": 40223,
        "meta_element_set_no": 999,
        "meta_rev_at_epoch": 59491,
        "meta_bstar": 0.0026290645,
        "meta_mean_motion_dot": 0.00036973,
        "meta_mean_motion_ddot": 0,
        "tle_line1": "1 40223U 93036BVC 25354.50731508  .00036973  00000+0  26291-2 0  9999",
        "tle_line2": "2 40223  73.9370  72.7196 0015431 279.9109  95.2538 15.04400789594913"
      },
      "geometry": {
        "type": "Point",
        "coordinates": [
          110.53971242477192,
          65.62269721957372
        ]
      }
    }
  ]
}